{
  "type": "FeatureCollection",
  "features": [
    {
      "type": "Feature",
      "properties": {
        "norad_id": 30022,
        "name": "FENGYUN 1C DEB",
        "group": "fengyun-1c-debris",
        "lat": 27.73488353061836,
        "lon": 31.770381203486558,
        "alt_km": 807.5914094870059,
        "timestamp": "2025-12-24T11:33:00.290050+00:00",
        "meta_object_name": "FENGYUN 1C DEB",
        "meta_object_id": "1999-025MX",
        "meta_epoch": "2025-12-24T01:25:49.929888",
        "meta_mean_motion": 14.23136344,
        "meta_eccentricity": 0.0066683,
        "meta_inclination": 99.0715,
        "meta_ra_of_asc_node": 206.5174,
        "meta_arg_of_pericenter": 236.2607,
        "meta_mean_anomaly": 277.265,
        "meta_ephemeris_type": 0,
        "meta_classification_type": "U",
        "meta_norad_cat_id": 30022,
        "meta_element_set_no": 999,
        "meta_rev_at_epoch": 98353,
        "meta_bstar": 6.8804e-05,
        "meta_mean_motion_dot": 1.11e-06,
        "meta_mean_motion_ddot": 0,
        "tle_line1": "1 30022U 99025MX  25358.05960567  .00000111  00000+0  68804-4 0  9995",
        "tle_line2": "2 30022  99.0715 206.5174 0066683 236.2607 277.2650 14.23136344983538"
      },
      "geometry": {
        "type": "Point",
        "coordinates": [
          31.770381203486558,
          27.73488353061836
        ]
      }
    },
    {
      "type": "Feature",
      "properties": {
        "norad_id": 30023,
        "name": "FENGYUN 1C DEB",
        "group": "fengyun-1c-debris",
        "lat": -32.80210070306551,
        "lon": -161.47694732102912,
        "alt_km": 844.1219038276859,
        "timestamp": "2025-12-24T11:33:00.290061+00:00",
        "meta_object_name": "FENGYUN 1C DEB",
        "meta_object_id": "1999-025MY",
        "meta_epoch": "2025-12-23T12:08:52.802880",
        "meta_mean_motion": 14.11877875,
        "meta_eccentricity": 0.00470076,
        "meta_inclination": 99.2936,
        "meta_ra_of_asc_node": 191.4553,
        "meta_arg_of_pericenter": 33.8297,
        "meta_mean_anomaly": 20.0514,
        "meta_ephemeris_type": 0,
        "meta_classification_type": "U",
        "meta_norad_cat_id": 30023,
        "meta_element_set_no": 999,
        "meta_rev_at_epoch": 97348,
        "meta_bstar": 0.00034539585,
        "meta_mean_motion_dot": 5.9e-06,
        "meta_mean_motion_ddot": 0,
        "tle_line1": "1 30023U 99025MY  25357.50616670  .00000590  00000+0  34540-3 0  9998",
        "tle_line2": "2 30023  99.2936 191.4553 0047007  33.8297  20.0514 14.11877875973488"
      },
      "geometry": {
        "type": "Point",
        "coordinates": [
          -161.47694732102912,
          -32.80210070306551
        ]
      }
    },
    {
      "type": "Feature",
      "properties": {
        "norad_id": 30028,
        "name": "FENGYUN 1C DEB",
        "group": "fengyun-1c-debris",
        "lat": -70.97892514768066,
        "lon": 14.974011545848944,
        "alt_km": 724.6719645071653,
        "timestamp": "2025-12-24T11:33:00.290071+00:00",
        "meta_object_name": "FENGYUN 1C DEB",
        "meta_object_id": "1999-025ND",
        "meta_epoch": "2025-12-23T11:45:16.593696",
        "meta_mean_motion": 14.55523654,
        "meta_eccentricity": 0.01747053,
        "meta_inclination": 98.1462,
        "meta_ra_of_asc_node": 349.4557,
        "meta_arg_of_pericenter": 194.852,
        "meta_mean_anomaly": 298.2766,
        "meta_ephemeris_type": 0,
        "meta_classification_type": "U",
        "meta_norad_cat_id": 30028,
        "meta_element_set_no": 999,
        "meta_rev_at_epoch": 99878,
        "meta_bstar": 0.00025765643,
        "meta_mean_motion_dot": 1.324e-05,
        "meta_mean_motion_ddot": 0,
        "tle_line1": "1 30028U 99025ND  25357.48977539  .00001324  00000+0  25766-3 0  9990",
        "tle_line2": "2 30028  98.1462 349.4557 0174705 194.8520 298.2766 14.55523654998786"
      },
      "geometry": {
        "type": "Point",
        "coordinates": [
          14.974011545848944,
          -70.97892514768066
        ]
      }
    },
    {
      "type": "Feature",
      "properties": {
        "norad_id": 30035,
        "name": "FENGYUN 1C DEB",
        "group": "fengyun-1c-debris",
        "lat": 33.832014390070746,
        "lon": -92.08959972818369,
        "alt_km": 684.4354616809032,
        "timestamp": "2025-12-24T11:33:00.290081+00:00",
        "meta_object_name": "FENGYUN 1C DEB",
        "meta_object_id": "1999-025NL",
        "meta_epoch": "2025-12-24T01:26:31.059744",
        "meta_mean_motion": 14.36980493,
        "meta_eccentricity": 0.0115236,
        "meta_inclination": 99.2716,
        "meta_ra_of_asc_node": 273.7427,
        "meta_arg_of_pericenter": 29.1782,
        "meta_mean_anomaly": 347.5599,
        "meta_ephemeris_type": 0,
        "meta_classification_type": "U",
        "meta_norad_cat_id": 30035,
        "meta_element_set_no": 999,
        "meta_rev_at_epoch": 99286,
        "meta_bstar": 8.6856e-05,
        "meta_mean_motion_dot": 2.24e-06,
        "meta_mean_motion_ddot": 0,
        "tle_line1": "1 30035U 99025NL  25358.06008171  .00000224  00000+0  86856-4 0  9996",
        "tle_line2": "2 30035  99.2716 273.7427 0115236  29.1782 347.5599 14.36980493992869"
      },
      "geometry": {
        "type": "Point",
        "coordinates": [
          -92.08959972818369,
          33.832014390070746
        ]
      }
    },
    {
      "type": "Feature",
      "properties": {
        "norad_id": 30036,
        "name": "FENGYUN 1C DEB",
        "group": "fengyun-1c-debris",
        "lat": 26.347163555326098,
        "lon": -150.60487916287994,
        "alt_km": 608.2602375514425,
        "timestamp": "2025-12-24T11:33:00.290091+00:00",
        "meta_object_name": "FENGYUN 1C DEB",
        "meta_object_id": "1999-025NM",
        "meta_epoch": "2025-12-24T01:10:09.902208",
        "meta_mean_motion": 14.46218172,
        "meta_eccentricity": 0.019053,
        "meta_inclination": 98.2519,
        "meta_ra_of_asc_node": 24.8523,
        "meta_arg_of_pericenter": 173.1506,
        "meta_mean_anomaly": 250.1997,
        "meta_ephemeris_type": 0,
        "meta_classification_type": "U",
        "meta_norad_cat_id": 30036,
        "meta_element_set_no": 999,
        "meta_rev_at_epoch": 99340,
        "meta_bstar": 0.00035754,
        "meta_mean_motion_dot": 1.552e-05,
        "meta_mean_motion_ddot": 0,
        "tle_line1": "1 30036U 99025NM  25358.04872572  .00001552  00000+0  35754-3 0  9994",
        "tle_line2": "2 30036  98.2519  24.8523 0190530 173.1506 250.1997 14.46218172993407"
      },
      "geometry": {
        "type": "Point",
        "coordinates": [
          -150.60487916287994,
          26.347163555326098
        ]
      }
    },
    {
      "type": "Feature",
      "properties": {
        "norad_id": 30037,
        "name": "FENGYUN 1C DEB",
        "group": "fengyun-1c-debris",
        "lat": 38.72901310869885,
        "lon": -32.944564500605864,
        "alt_km": 657.0844606300261,
        "timestamp": "2025-12-24T11:33:00.290102+00:00",
        "meta_object_name": "FENGYUN 1C DEB",
        "meta_object_id": "1999-025NN",
        "meta_epoch": "2025-12-23T09:18:06.873120",
        "meta_mean_motion": 14.3413338,
        "meta_eccentricity": 0.0173947,
        "meta_inclination": 98.3848,
        "meta_ra_of_asc_node": 332.7874,
        "meta_arg_of_pericenter": 23.5323,
        "meta_mean_anomaly": 131.8862,
        "meta_ephemeris_type": 0,
        "meta_classification_type": "U",
        "meta_norad_cat_id": 30037,
        "meta_element_set_no": 999,
        "meta_rev_at_epoch": 98940,
        "meta_bstar": 0.00022961,
        "meta_mean_motion_dot": 7.15e-06,
        "meta_mean_motion_ddot": 0,
        "tle_line1": "1 30037U 99025NN  25357.38757955  .00000715  00000+0  22961-3 0  9994",
        "tle_line2": "2 30037  98.3848 332.7874 0173947  23.5323 131.8862 14.34133380989407"
      },
      "geometry": {
        "type": "Point",
        "coordinates": [
          -32.944564500605864,
          38.72901310869885
        ]
      }
    },
    {
      "type": "Feature",
      "properties": {
        "norad_id": 30038,
        "name": "FENGYUN 1C DEB",
        "group": "fengyun-1c-debris",
        "lat": -71.6630946095162,
        "lon": 12.213704248900092,
        "alt_km": 909.7641739423634,
        "timestamp": "2025-12-24T11:33:00.290113+00:00",
        "meta_object_name": "FENGYUN 1C DEB",
        "meta_object_id": "1999-025NP",
        "meta_epoch": "2025-12-23T22:47:20.662080",
        "meta_mean_motion": 14.39319277,
        "meta_eccentricity": 0.0257927,
        "meta_inclination": 98.3694,
        "meta_ra_of_asc_node": 345.3229,
        "meta_arg_of_pericenter": 69.2578,
        "meta_mean_anomaly": 345.5508,
        "meta_ephemeris_type": 0,
        "meta_classification_type": "U",
        "meta_norad_cat_id": 30038,
        "meta_element_set_no": 999,
        "meta_rev_at_epoch": 99052,
        "meta_bstar": 0.00026758,
        "meta_mean_motion_dot": 1.177e-05,
        "meta_mean_motion_ddot": 0,
        "tle_line1": "1 30038U 99025NP  25357.94954470  .00001177  00000+0  26758-3 0  9999",
        "tle_line2": "2 30038  98.3694 345.3229 0257927  69.2578 345.5508 14.39319277990523"
      },
      "geometry": {
        "type": "Point",
        "coordinates": [
          12.213704248900092,
          -71.6630946095162
        ]
      }
    }
  ]
}